{
  "norad_id": 62834,
  "name": "STARLINK-11520 [DTC]",
  "history": [
    {
      "epoch": "2026-03-28T15:22:21.031680",
      "apogee_km": 357.05651277807374,
      "perigee_km": 355.54436219586023,
      "latitude_deg": 35.07524087624607,
      "longitude_deg": 164.89003519993275,
      "semi_major_axis_km": 6734.437437486967,
      "eccentricity": 0.00011227,
      "inclination_deg": 43.0004,
      "raan_deg": 191.5361,
      "arg_perigee_deg": 318.7559,
      "mean_anomaly_deg": 41.3224,
      "mean_motion_rev_day": 15.70908096
    }
  ]
}