{"fetched_at":"2026-03-30T13:17:50Z","count":15418,"tles":[{"name":"STARLINK-11520 [DTC]","line1":"1 62834U 25019F   26087.64052120  .00311287  00000+0  23330-2 0  9997","line2":"2 62834  43.0004 191.5361 0001122 318.7559  41.3224 15.70908096 66874","category":"Starlink"}]}